[{"OBJECT_NAME":"LEO 1 (LEO VANTAGE 1)","OBJECT_ID":"2018-004C","EPOCH":"2026-03-09T16:57:06.140448","MEAN_MOTION":14.67184901,"ECCENTRICITY":0.03529424,"INCLINATION":99.2469,"RA_OF_ASC_NODE":334.0284,"ARG_OF_PERICENTER":24.854,"MEAN_ANOMALY":336.9207,"EPHEMERIS_TYPE":0,"CLASSIFICATION_TYPE":"U","NORAD_CAT_ID":43113,"ELEMENT_SET_NO":999,"REV_AT_EPOCH":42289,"BSTAR":0.000396029,"MEAN_MOTION_DOT":5.709e-5,"MEAN_MOTION_DDOT":0},{"OBJECT_NAME":"COSMOS 2251 DEB","OBJECT_ID":"1993-036DJ","EPOCH":"2026-03-09T15:07:58.413216","MEAN_MOTION":14.3574739,"ECCENTRICITY":0.0056935,"INCLINATION":73.8867,"RA_OF_ASC_NODE":155.7797,"ARG_OF_PERICENTER":23.5448,"MEAN_ANOMALY":104.0297,"EPHEMERIS_TYPE":0,"CLASSIFICATION_TYPE":"U","NORAD_CAT_ID":33905,"ELEMENT_SET_NO":999,"REV_AT_EPOCH":88934,"BSTAR":0.00062881,"MEAN_MOTION_DOT":1.825e-5,"MEAN_MOTION_DDOT":0}]
